FALCONSAT-6             
1 43815U 18099BK  26068.72544389  .00005029  00000+0  19477-3 0  9998
2 43815  97.3865 145.8165 0014370 297.0944 181.0714 15.26532865398556
STARLINK-1524           
1 46047U 20055W   26068.39257527  .00008160  00000+0  29458-3 0  9990
2 46047  53.1566 115.2043 0001469 112.6811 247.4344 15.29379865309022
